STARLINK-4563           
1 53561U 22101AL  26068.38302786 -.00000108  00000+0  11286-4 0  9996
2 53561  53.2178  65.4938 0001395  84.0280 276.0872 15.08842859196269
DISKSAT A               
1 67222U 25305D   26068.54789610  .00013824  00000+0  90452-3 0  9996
2 67222  45.0023 251.6019 0004082 318.1929  41.8634 15.07741062 12266
